ONEWEB-0158             
1 48054U 21025N   26005.18444808  .00000306  00000+0  80289-3 0  9999
2 48054  87.8993 352.6038 0001822  74.7583 285.3748 13.13468426232238
ONEWEB-0157             
1 48055U 21025P   26005.20983518 -.00000242  00000+0 -69880-3 0  9994
2 48055  87.8992 352.6044 0001404  94.8647 265.2642 13.13468601232173
ONEWEB-0162             
1 48056U 21025Q   26005.18600381  .00000227  00000+0  58751-3 0  9992
2 48056  87.8995 352.6120 0001775  90.0231 270.1101 13.13468381232147
ONEWEB-0155             
1 48057U 21025R   26004.96437197  .00000110  00000+0  26559-3 0  9993
2 48057  87.8991 352.6603 0001508  85.0708 275.0593 13.13469690232252
ONEWEB-0149             
1 48058U 21025S   26004.98637736 -.00000179  00000+0 -52552-3 0  9996
2 48058  87.8988 352.6495 0001884  91.8143 268.3202 13.13469151232066
ONEWEB-0148             
1 48059U 21025T   26005.02532083  .00000429  00000+0  11393-2 0  9995
2 48059  87.8984 352.6600 0001983 103.4060 256.7290 13.13468473232197
ONEWEB-0160             
1 48060U 21025U   26005.19460394  .00000136  00000+0  33671-3 0  9999
2 48060  87.8984 352.6234 0002322  71.4678 288.6703 13.13468454232168
ONEWEB-0163             
1 48061U 21025V   26005.02701674  .00000427  00000+0  11343-2 0  9995
2 48061  87.8990 352.6453 0001463  93.7152 266.4145 13.13470529232269
